{
    "links": {
        "self": "http://www.neowsapp.com/rest/v1/neo/3841945?api_key=iIulBulltgU6a56xZRHN4H3l9WmuAYTsLGpBGhQ2"
    },
    "id": "3841945",
    "neo_reference_id": "3841945",
    "name": "(2019 JQ7)",
    "designation": "2019 JQ7",
    "nasa_jpl_url": "http://ssd.jpl.nasa.gov/sbdb.cgi?sstr=3841945",
    "absolute_magnitude_h": 23.1,
    "estimated_diameter": {
        "kilometers": {
            "estimated_diameter_min": 0.063760979,
            "estimated_diameter_max": 0.1425738833
        },
        "meters": {
            "estimated_diameter_min": 63.7609789875,
            "estimated_diameter_max": 142.5738833281
        },
        "miles": {
            "estimated_diameter_min": 0.0396192233,
            "estimated_diameter_max": 0.0885912765
        },
        "feet": {
            "estimated_diameter_min": 209.1895703015,
            "estimated_diameter_max": 467.7620993781
        }
    },
    "is_potentially_hazardous_asteroid": false,
    "close_approach_data": [
        {
            "close_approach_date": "2015-05-13",
            "close_approach_date_full": "2015-May-13 06:19",
            "epoch_date_close_approach": 1431497940000,
            "relative_velocity": {
                "kilometers_per_second": "10.8637934209",
                "kilometers_per_hour": "39109.656315078",
                "miles_per_hour": "24301.2195031105"
            },
            "miss_distance": {
                "astronomical": "0.4085793821",
                "lunar": "158.9373796369",
                "kilometers": "61122605.288076127",
                "miles": "37979825.7780874726"
            },
            "orbiting_body": "Earth"
        },
        {
            "close_approach_date": "2017-05-20",
            "close_approach_date_full": "2017-May-20 22:04",
            "epoch_date_close_approach": 1495317840000,
            "relative_velocity": {
                "kilometers_per_second": "9.7785400645",
                "kilometers_per_hour": "35202.7442323233",
                "miles_per_hour": "21873.6162703567"
            },
            "miss_distance": {
                "astronomical": "0.2854678989",
                "lunar": "111.0470126721",
                "kilometers": "42705389.628815343",
                "miles": "26535898.6293760134"
            },
            "orbiting_body": "Earth"
        },
        {
            "close_approach_date": "2019-05-28",
            "close_approach_date_full": "2019-May-28 11:02",
            "epoch_date_close_approach": 1559041320000,
            "relative_velocity": {
                "kilometers_per_second": "9.0544940739",
                "kilometers_per_hour": "32596.1786658735",
                "miles_per_hour": "20253.9977938035"
            },
            "miss_distance": {
                "astronomical": "0.2436887999",
                "lunar": "94.7949431611",
                "kilometers": "36455325.407896213",
                "miles": "22652288.8078772194"
            },
            "orbiting_body": "Earth"
        },
        {
            "close_approach_date": "2021-06-05",
            "close_approach_date_full": "2021-Jun-05 17:38",
            "epoch_date_close_approach": 1622914680000,
            "relative_velocity": {
                "kilometers_per_second": "8.889985596",
                "kilometers_per_hour": "32003.9481454974",
                "miles_per_hour": "19886.0087796286"
            },
            "miss_distance": {
                "astronomical": "0.3094970823",
                "lunar": "120.3943650147",
                "kilometers": "46300104.283294701",
                "miles": "28769550.7398448338"
            },
            "orbiting_body": "Earth"
        },
        {
            "close_approach_date": "2023-06-18",
            "close_approach_date_full": "2023-Jun-18 04:59",
            "epoch_date_close_approach": 1687064340000,
            "relative_velocity": {
                "kilometers_per_second": "8.8380647411",
                "kilometers_per_hour": "31817.0330680254",
                "miles_per_hour": "19769.8670194073"
            },
            "miss_distance": {
                "astronomical": "0.4254466142",
                "lunar": "165.4987329238",
                "kilometers": "63645907.283031754",
                "miles": "39547732.9329320452"
            },
            "orbiting_body": "Earth"
        }
    ],
    "orbital_data": {
        "orbit_id": "3",
        "orbit_determination_date": "2019-06-01 06:33:25",
        "first_observation_date": "2019-05-07",
        "last_observation_date": "2019-06-01",
        "data_arc_in_days": 25,
        "observations_used": 20,
        "orbit_uncertainty": "7",
        "minimum_orbit_intersection": ".242626",
        "jupiter_tisserand_invariant": "4.333",
        "epoch_osculation": "2459000.5",
        "eccentricity": ".2280313906475575",
        "semi_major_axis": "1.570501099006255",
        "inclination": "17.62696730526476",
        "ascending_node_longitude": "77.86671996090719",
        "orbital_period": "718.87899456431",
        "perihelion_distance": "1.212377549386341",
        "perihelion_argument": "136.9248535905996",
        "aphelion_distance": "1.928624648626169",
        "perihelion_time": "2459310.783005273844",
        "mean_anomaly": "204.6165728263031",
        "mean_motion": ".5007796899368088",
        "equinox": "J2000",
        "orbit_class": {
            "orbit_class_type": "AMO",
            "orbit_class_description": "Near-Earth asteroid orbits similar to that of 1221 Amor",
            "orbit_class_range": "1.017 AU < q (perihelion) < 1.3 AU"
        }
    },
    "is_sentry_object": false
}